NORAD_CAT_ID,OBJECT_NAME,OBJECT_TYPE,EPOCH,MEAN_MOTION,ECCENTRICITY,INCLINATION,RA_OF_ASC_NODE,ARG_OF_PERICENTER,MEAN_ANOMALY,BSTAR,MEAN_MOTION_DOT,MEAN_MOTION_DDOT,TLE_LINE0,TLE_LINE1,TLE_LINE2,SEMIMAJOR_AXIS,PERIOD,APOGEE,PERIGEE,DECAYED
53254.0,STARLINK-4134,PAYLOAD,2022-09-09 22:00:00,15.52006319,0.0001233,53.2175,169.4839,70.2978,207.1028,-0.019041,-0.01058936,0.0,0 STARLINK-4134,1 53254U 22086N   22252.91667824 -.01058936  00000-0 -19041-1 0  9993,2 53254  53.2175 169.4839 0001233  70.2978 207.1028 15.52006319  1302,6789.005999999999,92.783,411.708,410.034,0.0
53254.0,STARLINK-4134,PAYLOAD,2022-09-10 04:00:00,15.51435762,0.0001375999999999,53.2175,168.285,66.7134,168.0224,-0.019406,-0.01057416,0.0,0 STARLINK-4134,1 53254U 22086N   22253.16667824 -.01057416  00000-0 -19406-1 0  9998,2 53254  53.2175 168.2850 0001376  66.7134 168.0224 15.51435762  8110,6790.67,92.817,413.47,411.601,0.0
53254.0,STARLINK-4134,PAYLOAD,2022-09-10 12:00:00,15.50555773,0.0001471,53.2174,166.6856,65.3853,231.6864,-0.012936,-0.00689564,0.0,0 STARLINK-4134,1 53254U 22086N   22253.50001157 -.00689564  00000-0 -12936-1 0  9992,2 53254  53.2174 166.6856 0001471  65.3853 231.6864 15.50555773  8162,6793.239000000001,92.87,416.104,414.105,0.0
53254.0,STARLINK-4134,PAYLOAD,2022-09-10 14:00:01,15.50361579,0.0001379,53.2174,166.2861,64.2998,338.2041,-0.010236,-0.00551527,0.0,0 STARLINK-4134,1 53254U 22086N   22253.58334491 -.00551527  00000-0 -10236-1 0  9998,2 53254  53.2174 166.2861 0001379  64.2998 338.2041 15.50361579  1308,6793.807,92.882,416.608,414.735,0.0
53254.0,STARLINK-4134,PAYLOAD,2022-09-10 20:00:01,15.49940163,0.0001482,53.2175,165.0904,68.7766,289.7289,-0.0015853,-0.00089579,0.0,0 STARLINK-4134,1 53254U 22086N   22253.83334491 -.00089579  00000-0 -15853-2 0  9990,2 53254  53.2175 165.0904 0001482  68.7766 289.7289 15.49940163  8223,6795.038000000001,92.907,417.91,415.896,0.0
53254.0,STARLINK-4134,PAYLOAD,2022-09-10 22:00:00,15.49880657,0.0001405,53.2175,164.6927,65.047,38.7147,0.00012584,6.696e-05,0.0,0 STARLINK-4134,1 53254U 22086N   22253.91667824  .00006696  00000-0  12584-3 0  9994,2 53254  53.2175 164.6927 0001405  65.0470  38.7147 15.49880657  1308,6795.212,92.91,418.032,416.122,0.0
53254.0,STARLINK-4134,PAYLOAD,2022-09-11 06:00:00,15.49884133,0.0001274,53.2173,163.1006,61.967,102.7063,5.5274e-05,2.687e-05,0.0,0 STARLINK-4134,1 53254U 22086N   22254.25001157  .00002687  00000-0  55274-4 0  9993,2 53254  53.2173 163.1006 0001274  61.9670 102.7063 15.49884133  8285,6795.2019999999975,92.91,417.932,416.201,0.0
53254.0,STARLINK-4134,PAYLOAD,2022-09-11 14:00:01,15.49883706,0.0001209,53.2175,161.5054,66.5712,159.0181,6.3608e-05,3.16e-05,0.0,0 STARLINK-4134,1 53254U 22086N   22254.58334491  .00003160  00000-0  63608-4 0  9996,2 53254  53.2175 161.5054 0001209  66.5712 159.0181 15.49883706  1305,6795.203,92.91,417.89,416.246,0.0
53254.0,STARLINK-4134,PAYLOAD,2022-09-11 22:00:00,15.49884724,0.0001291,53.2176,159.9136,64.0001,222.5024,3.2193e-05,1.376e-05,0.0,0 STARLINK-4134,1 53254U 22086N   22254.91667824  .00001376  00000-0  32193-4 0  9994,2 53254  53.2176 159.9136 0001291  64.0001 222.5024 15.49884724  1306,6795.2,92.91,417.942,416.18800000000016,0.0
53254.0,STARLINK-4134,PAYLOAD,2022-09-12 14:00:01,15.49843978,0.0001433,53.2168,156.7323,71.7488,336.6389,0.0012383,0.00070361,0.0,0 STARLINK-4134,1 53254U 22086N   22255.58334491  .00070361  00000-0  12383-2 0  9996,2 53254  53.2168 156.7323 0001433  71.7488 336.6389 15.49843978  1309,6795.319,92.913,418.158,416.21,0.0
53254.0,STARLINK-4134,PAYLOAD,2022-09-12 22:00:00,15.50009552,0.0001385,53.2171,155.1361,68.9737,40.3042,-0.011417,-0.00603467,0.0,0 STARLINK-4134,1 53254U 22086N   22255.91667824 -.00603467  00000-0 -11417-1 0  9999,2 53254  53.2171 155.1361 0001385  68.9737  40.3042 15.50009552  8541,6794.835,92.903,417.641,415.759,0.0
53254.0,STARLINK-4134,PAYLOAD,2022-09-13 06:00:00,15.49717245,0.0001308,53.217,153.5385,69.689,100.369,-0.020697,-0.01060155,0.0,0 STARLINK-4134,1 53254U 22086N   22256.25001157 -.01060155  00000-0 -20697-1 0  9990,2 53254  53.2170 153.5385 0001308  69.6890 100.3690 15.49717245  8595,6795.69,92.92,418.443,416.666,0.0
53254.0,STARLINK-4134,PAYLOAD,2022-09-13 14:00:01,15.48954614,0.0001239,53.2173,151.9412,84.5451,145.7633,-0.0211909999999999,-0.01056792,0.0,0 STARLINK-4134,1 53254U 22086N   22256.58334491 -.01056792  00000-0 -21191-1 0  9998,2 53254  53.2173 151.9412 0001239  84.5451 145.7633 15.48954614  1307,6797.92,92.966,420.627,418.943,0.0
53254.0,STARLINK-4134,PAYLOAD,2022-09-13 22:00:00,15.48194896,0.0001262999999999,53.2173,150.35,65.7942,223.8474,-0.021748,-0.01055968,0.0,0 STARLINK-4134,1 53254U 22086N   22256.91667824 -.01055968  00000-0 -21748-1 0  9996,2 53254  53.2173 150.3500 0001263  65.7942 223.8474 15.48194896  1300,6800.144,93.012,422.86800000000005,421.15,0.0
53254.0,STARLINK-4134,PAYLOAD,2022-09-14 06:00:00,15.47432107,0.0001139,53.2165,148.7612,59.0265,289.0366,-0.022227,-0.01051162,0.0,0 STARLINK-4134,1 53254U 22086N   22257.25001157 -.01051162  00000-0 -22227-1 0  9990,2 53254  53.2165 148.7612 0001139  59.0265 289.0366 15.47432107  8751,6802.378000000002,93.057,425.018,423.468,0.0
53254.0,STARLINK-4134,PAYLOAD,2022-09-14 14:00:01,15.46678792,0.0001193,53.2168,147.1699,51.8226,353.7477,-0.023031,-0.0106004,0.0,0 STARLINK-4134,1 53254U 22086N   22257.58334491 -.01060040  00000-0 -23031-1 0  9995,2 53254  53.2168 147.1699 0001193  51.8226 353.7477 15.46678792  1306,6804.587,93.103,427.264,425.64,0.0
53254.0,STARLINK-4134,PAYLOAD,2022-09-14 20:00:01,15.46108308,0.0001237,53.2174,145.9783,56.6045,301.4997,-0.023468,-0.01059066,0.0,0 STARLINK-4134,1 53254U 22086N   22257.83334491 -.01059066  00000-0 -23468-1 0  9993,2 53254  53.2174 145.9783 0001237  56.6045 301.4997 15.46108308  8848,6806.26,93.137,428.967,427.284,0.0
53254.0,STARLINK-4134,PAYLOAD,2022-09-14 22:00:00,15.45939754,0.0001252999999999,53.2171,145.584,71.7198,30.4341,-0.024235,-0.01084661,0.0,0 STARLINK-4134,1 53254U 22086N   22257.91667824 -.01084661  00000-0 -24235-1 0  9993,2 53254  53.2171 145.5840 0001253  71.7198  30.4341 15.45939754  1302,6806.755,93.147,429.473,427.767,0.0
53254.0,STARLINK-4134,PAYLOAD,2022-09-15 14:00:01,15.44408609,0.0001356,53.2167,142.4126,62.5492,150.0662,-0.025129,-0.01068564,0.0,0 STARLINK-4134,1 53254U 22086N   22258.58334491 -.01068564  00000-0 -25129-1 0  9995,2 53254  53.2167 142.4126 0001356  62.5492 150.0662 15.44408609  1303,6811.253000000002,93.24,434.042,432.195,0.0
53254.0,STARLINK-4134,PAYLOAD,2022-09-15 22:00:00,15.43636823,0.0001368,53.2174,140.83100000000005,62.2285,204.2524,-0.025401,-0.01053539,0.0,0 STARLINK-4134,1 53254U 22086N   22258.91667824 -.01053539  00000-0 -25401-1 0  9990,2 53254  53.2174 140.8310 0001368  62.2285 204.2524 15.43636823  1307,6813.523,93.286,436.321,434.456,0.0
53254.0,STARLINK-4134,PAYLOAD,2022-09-16 00:00:00,15.43454513,0.0001109,53.2173,140.4371,75.1908,294.608,-0.025862,-0.01079821,0.0,0 STARLINK-4134,1 53254U 22086N   22259.00001157 -.01079821  00000-0 -25862-1 0  9995,2 53254  53.2173 140.4371 0001109  75.1908 294.6080 15.43454513  9028,6814.06,93.297,436.681,435.169,0.0
53254.0,STARLINK-4134,PAYLOAD,2022-09-16 14:00:01,15.42117328,0.0001229,53.2172,137.6705,56.1344,315.3263,-0.0267339999999999,-0.01067905,0.0,0 STARLINK-4134,1 53254U 22086N   22259.58334491 -.01067905  00000-0 -26734-1 0  9997,2 53254  53.2172 137.6705 0001229  56.1344 315.3263 15.42117328  1308,6817.998000000001,93.378,440.701,439.025,0.0
53254.0,STARLINK-4134,PAYLOAD,2022-09-16 22:00:00,15.41360803,0.0001508,53.2175,136.0959,44.8664,17.712,-0.027532,-0.01071905,0.0,0 STARLINK-4134,1 53254U 22086N   22259.91667824 -.01071905  00000-0 -27532-1 0  9995,2 53254  53.2175 136.0959 0001508  44.8664  17.7120 15.41360803  1306,6820.229,93.424,443.12300000000016,441.066,0.0
53254.0,STARLINK-4134,PAYLOAD,2022-09-17 14:00:01,15.39841143,0.0001465,53.2173,132.9464,57.832,104.2502,-0.028943,-0.01071227,0.0,0 STARLINK-4134,1 53254U 22086N   22260.58334491 -.01071227  00000-0 -28943-1 0  9995,2 53254  53.2173 132.9464 0001465  57.8320 104.2502 15.39841143  1309,6824.715999999999,93.516,447.58,445.581,0.0
53254.0,STARLINK-4134,PAYLOAD,2022-09-17 22:00:00,15.39079817,0.0001527,53.2174,131.377,57.3805,153.0835,-0.029574,-0.01067681,0.0,0 STARLINK-4134,1 53254U 22086N   22260.91667824 -.01067681  00000-0 -29574-1 0  9991,2 53254  53.2174 131.3770 0001527  57.3805 153.0835 15.39079817  1307,6826.965999999999,93.562,449.874,447.789,0.0
53254.0,STARLINK-4134,PAYLOAD,2022-09-18 14:00:01,15.37560242,0.0001237,53.2174,128.2383,69.3466,235.2091,-0.031054,-0.01066585,0.0,0 STARLINK-4134,1 53254U 22086N   22261.58335648 -.01066585  00000-0 -31054-1 0  9999,2 53254  53.2174 128.2383 0001237  69.3466 235.2091 15.37560242  1308,6831.4630000000025,93.655,454.173,452.483,0.0
53254.0,STARLINK-4134,PAYLOAD,2022-09-18 22:00:00,15.36803506,0.0001365999999999,53.2172,126.6746,52.4785,297.6551,-0.031968,-0.0107089,0.0,0 STARLINK-4134,1 53254U 22086N   22261.91667824 -.01070890  00000-0 -31968-1 0  9998,2 53254  53.2172 126.6746 0001366  52.4785 297.6551 15.36803506  9472,6833.706,93.701,456.504,454.637,0.0
53254.0,STARLINK-4134,PAYLOAD,2022-09-19 14:00:01,15.35282246,0.0001320999999999,53.2174,123.5465,60.629,18.0569,-0.033442,-0.01066831,0.0,0 STARLINK-4134,1 53254U 22086N   22262.58334491 -.01066831  00000-0 -33442-1 0  9992,2 53254  53.2174 123.5465 0001321  60.6290  18.0569 15.35282246  1300,6838.219,93.794,460.98800000000006,459.181,0.0
53254.0,STARLINK-4134,PAYLOAD,2022-09-19 22:00:00,15.34524498,0.0001646,53.2172,121.9884,46.8704,74.7198,-0.034362,-0.01069664,0.0,0 STARLINK-4134,1 53254U 22086N   22262.91667824 -.01069664  00000-0 -34362-1 0  9997,2 53254  53.2172 121.9884 0001646  46.8704  74.7198 15.34524498  9628,6840.47,93.84,463.461,461.209,0.0
